KUIPER-00157            
1 65970U 25228Z   25362.26999480  .00036476  00000+0  10069-2 0  9994
2 65970  51.8795 305.6524 0007649  86.9624 273.2238 15.36703600 12809
KUIPER-00144            
1 67133U 25301A   25363.62815964  .00041870  00000+0  11932-2 0  9998
2 67133  51.8709  43.6941 0006371 130.6725 229.4815 15.35652800  2963
KUIPER-00164            
1 67134U 25301B   25363.81711235  .00060181  00000+0  16711-2 0  9992
2 67134  51.8726  42.7100 0003256 112.0669 248.0663 15.36313360  3178
KUIPER-00175            
1 67135U 25301C   25363.81288773  .00064048  00000+0  17522-2 0  9996
2 67135  51.8739  42.6780 0003034  66.0963 294.0341 15.36747999  3066
KUIPER-00179            
1 67136U 25301D   25363.81563512  .00040312  00000+0  11228-2 0  9999
2 67136  51.8738  42.6966 0002897 100.5863 259.5450 15.36399300  3179
KUIPER-00181            
1 67137U 25301E   25363.63717957  .00045346  00000+0  13375-2 0  9991
2 67137  51.8656  43.7494 0010485 153.4548 206.6976 15.34502496  3127
KUIPER-00183            
1 67138U 25301F   25363.64003959  .00042304  00000+0  12597-2 0  9999
2 67138  51.8632  43.7666 0010799 157.0688 203.0782 15.34230771  3137
KUIPER-00184            
1 67139U 25301G   25363.63645215  .00031354  00000+0  92959-3 0  9990
2 67139  51.8641  43.7443 0009017 153.4028 206.7422 15.34527762  3242
